[Satellite]
VERSION=1.1
NAME=FLOCK 3P-66
NICKNAME=FLOCK 3P-66
TLE1=1 42027U 17008CH  18020.85752538  .00001307  00000-0  57193-4 0  9995
TLE2=2 42027  97.4701  86.5550 0009039 156.9696 203.1948 15.23827703 51626
